{"type":"FeatureCollection","features":[{"type":"Feature","properties":{"name":"Jabal Arkanu","feature":"mountain","elevation_m":1934.0,"rank":7,"code":"SDN"},"geometry":{"type":"Point","coordinates":[24.983,21.916]}},{"type":"Feature","properties":{"name":"Jabal Teljo","feature":"mountain","elevation_m":1954.0,"rank":7,"code":"SDN"},"geometry":{"type":"Point","coordinates":[25.934,14.7]}},{"type":"Feature","properties":{"name":"Hunsberge","feature":"mountain","elevation_m":1655.0,"rank":7,"code":"NAM"},"geometry":{"type":"Point","coordinates":[17.167,-27.833]}},{"type":"Feature","properties":{"name":"Mount Richard-Molard","feature":"mountain","elevation_m":1752.0,"rank":7,"code":"GIN"},"geometry":{"type":"Point","coordinates":[-8.414,7.62]}},{"type":"Feature","properties":{"name":"Jabal Is","feature":"mountain","elevation_m":1851.0,"rank":7,"code":"EGY"},"geometry":{"type":"Point","coordinates":[35.467,22.05]}},{"type":"Feature","properties":{"name":"","feature":"spot elevation","elevation_m":694.0,"rank":7,"code":"NGA"},"geometry":{"type":"Point","coordinates":[4.936,7.666]}},{"type":"Feature","properties":{"name":"Mount Agou","feature":"mountain","elevation_m":968.0,"rank":7,"code":"TGO"},"geometry":{"type":"Point","coordinates":[0.757,6.878]}},{"type":"Feature","properties":{"name":"Mount Dimlang","feature":"mountain","elevation_m":2042.0,"rank":7,"code":"NGA"},"geometry":{"type":"Point","coordinates":[11.789,8.398]}},{"type":"Feature","properties":{"name":"","feature":"spot elevation","elevation_m":1781.0,"rank":7,"code":"NGA"},"geometry":{"type":"Point","coordinates":[9.162,9.217]}},{"type":"Feature","properties":{"name":"","feature":"spot elevation","elevation_m":1893.0,"rank":7,"code":"ZMB"},"geometry":{"type":"Point","coordinates":[29.668,-13.906]}},{"type":"Feature","properties":{"name":"Bokkeveldberg","feature":"mountain","elevation_m":843.0,"rank":7,"code":"ZAF"},"geometry":{"type":"Point","coordinates":[18.981,-31.125]}},{"type":"Feature","properties":{"name":"Mount Bintumani","feature":"mountain","elevation_m":1945.0,"rank":7,"code":"SLE"},"geometry":{"type":"Point","coordinates":[-11.089,9.243]}},{"type":"Feature","properties":{"name":"","feature":"spot elevation","elevation_m":3315.0,"rank":6,"code":"TCD"},"geometry":{"type":"Point","coordinates":[16.527,21.131]}},{"type":"Feature","properties":{"name":"Marrah Mountains","feature":"mountain","elevation_m":3042.0,"rank":6,"code":"SDN"},"geometry":{"type":"Point","coordinates":[24.238,12.95]}},{"type":"Feature","properties":{"name":"Jbel Tidirhine","feature":"mountain","elevation_m":2456.0,"rank":6,"code":"MAR"},"geometry":{"type":"Point","coordinates":[-4.512,34.83]}},{"type":"Feature","properties":{"name":"Lalla-Khadîdja","feature":"mountain","elevation_m":2308.0,"rank":6,"code":"DZA"},"geometry":{"type":"Point","coordinates":[4.229,36.457]}},{"type":"Feature","properties":{"name":"Seweweekspoortpiek","feature":"mountain","elevation_m":2325.0,"rank":6,"code":"ZAF"},"geometry":{"type":"Point","coordinates":[21.366,-33.396]}},{"type":"Feature","properties":{"name":"Pico de São Tomé","feature":"mountain","elevation_m":2024.0,"rank":6,"code":"STP"},"geometry":{"type":"Point","coordinates":[6.554,0.282]}},{"type":"Feature","properties":{"name":"Mount Moco","feature":"mountain","elevation_m":2620.0,"rank":6,"code":"AGO"},"geometry":{"type":"Point","coordinates":[15.167,-12.465]}},{"type":"Feature","properties":{"name":"Monts de la Lékéti","feature":"mountain","elevation_m":1000.0,"rank":6,"code":"COG"},"geometry":{"type":"Point","coordinates":[14.179,-2.518]}},{"type":"Feature","properties":{"name":"Mount Loolmalasin","feature":"mountain","elevation_m":3682.0,"rank":6,"code":"TZA"},"geometry":{"type":"Point","coordinates":[35.84,-3.043]}},{"type":"Feature","properties":{"name":"Mount Nyangani","feature":"mountain","elevation_m":2592.0,"rank":6,"code":"ZWE"},"geometry":{"type":"Point","coordinates":[32.847,-18.281]}},{"type":"Feature","properties":{"name":"Monte Binga","feature":"mountain","elevation_m":2436.0,"rank":6,"code":"MOZ"},"geometry":{"type":"Point","coordinates":[33.052,-19.787]}},{"type":"Feature","properties":{"name":"Die Berg","feature":"mountain","elevation_m":2331.0,"rank":6,"code":"ZAF"},"geometry":{"type":"Point","coordinates":[30.157,-25.222]}},{"type":"Feature","properties":{"name":"Kegueur Terbi","feature":"mountain","elevation_m":3376.0,"rank":6,"code":"TCD"},"geometry":{"type":"Point","coordinates":[18.7,21.417]}},{"type":"Feature","properties":{"name":"Emi Koussi","feature":"mountain","elevation_m":3415.0,"rank":6,"code":"TCD"},"geometry":{"type":"Point","coordinates":[18.552,19.793]}},{"type":"Feature","properties":{"name":"Monts Bagzane","feature":"mountain","elevation_m":2022.0,"rank":6,"code":"NER"},"geometry":{"type":"Point","coordinates":[8.667,18.667]}},{"type":"Feature","properties":{"name":"Mount Tahat","feature":"mountain","elevation_m":2908.0,"rank":6,"code":"DZA"},"geometry":{"type":"Point","coordinates":[5.526,23.288]}},{"type":"Feature","properties":{"name":"Garet el Djenoun","feature":"mountain","elevation_m":2327.0,"rank":6,"code":"DZA"},"geometry":{"type":"Point","coordinates":[5.409,25.046]}},{"type":"Feature","properties":{"name":"Djebel Chélia","feature":"mountain","elevation_m":2326.0,"rank":6,"code":"DZA"},"geometry":{"type":"Point","coordinates":[6.666,35.333]}},{"type":"Feature","properties":{"name":"Shimbiris","feature":"mountain","elevation_m":2414.0,"rank":6,"code":"SOL"},"geometry":{"type":"Point","coordinates":[47.243,10.739]}},{"type":"Feature","properties":{"name":"Jabal Hamoyet","feature":"mountain","elevation_m":2726.0,"rank":6,"code":"SDN"},"geometry":{"type":"Point","coordinates":[38.0,17.55]}},{"type":"Feature","properties":{"name":"Ramlo","feature":"mountain","elevation_m":2248.0,"rank":6,"code":"ERI"},"geometry":{"type":"Point","coordinates":[41.728,13.392]}},{"type":"Feature","properties":{"name":"Mount Oku","feature":"mountain","elevation_m":3011.0,"rank":6,"code":"CMR"},"geometry":{"type":"Point","coordinates":[10.517,6.183]}},{"type":"Feature","properties":{"name":"Brandberg","feature":"mountain","elevation_m":2579.0,"rank":6,"code":"NAM"},"geometry":{"type":"Point","coordinates":[14.575,-21.16]}},{"type":"Feature","properties":{"name":"Compassberg","feature":"mountain","elevation_m":2504.0,"rank":6,"code":"ZAF"},"geometry":{"type":"Point","coordinates":[24.531,-31.769]}},{"type":"Feature","properties":{"name":"Kimhandu","feature":"mountain","elevation_m":2653.0,"rank":6,"code":"TZA"},"geometry":{"type":"Point","coordinates":[37.618,-7.1]}},{"type":"Feature","properties":{"name":"Kabobo Massif","feature":"mountain","elevation_m":2725.0,"rank":6,"code":"COD"},"geometry":{"type":"Point","coordinates":[29.051,-5.14]}},{"type":"Feature","properties":{"name":"Mount Namuli","feature":"mountain","elevation_m":2419.0,"rank":6,"code":"MOZ"},"geometry":{"type":"Point","coordinates":[37.072,-15.333]}},{"type":"Feature","properties":{"name":"Jbel Toubkal","feature":"mountain","elevation_m":4165.0,"rank":5,"code":"MAR"},"geometry":{"type":"Point","coordinates":[-7.916,31.062]}},{"type":"Feature","properties":{"name":"Thabana Ntlenyana","feature":"mountain","elevation_m":3482.0,"rank":5,"code":"LSO"},"geometry":{"type":"Point","coordinates":[29.267,-29.467]}},{"type":"Feature","properties":{"name":"Mount Batu","feature":"mountain","elevation_m":4307.0,"rank":5,"code":"ETH"},"geometry":{"type":"Point","coordinates":[39.417,6.667]}},{"type":"Feature","properties":{"name":"Argun","feature":"mountain","elevation_m":3418.0,"rank":5,"code":"ETH"},"geometry":{"type":"Point","coordinates":[36.747,6.11]}},{"type":"Feature","properties":{"name":"Kinyeti","feature":"mountain","elevation_m":3187.0,"rank":5,"code":"SDS"},"geometry":{"type":"Point","coordinates":[32.901,3.955]}},{"type":"Feature","properties":{"name":"Gara Muleta","feature":"mountain","elevation_m":3405.0,"rank":5,"code":"ETH"},"geometry":{"type":"Point","coordinates":[41.734,9.269]}},{"type":"Feature","properties":{"name":"Ras Dashen","feature":"mountain","elevation_m":4533.0,"rank":5,"code":"ETH"},"geometry":{"type":"Point","coordinates":[38.372,13.237]}},{"type":"Feature","properties":{"name":"Mount Elgon","feature":"mountain","elevation_m":4321.0,"rank":5,"code":"UGA"},"geometry":{"type":"Point","coordinates":[34.534,1.123]}},{"type":"Feature","properties":{"name":"Qattara Depression","feature":"depression","elevation_m":-133.0,"rank":5,"code":"EGY"},"geometry":{"type":"Point","coordinates":[27.496,30.044]}},{"type":"Feature","properties":{"name":"Richat Structure","feature":"depression","elevation_m":485.0,"rank":5,"code":"MRT"},"geometry":{"type":"Point","coordinates":[-11.373,21.206]}},{"type":"Feature","properties":{"name":"Talo","feature":"mountain","elevation_m":4413.0,"rank":5,"code":"ETH"},"geometry":{"type":"Point","coordinates":[37.882,10.657]}},{"type":"Feature","properties":{"name":"Mount Satima","feature":"mountain","elevation_m":4001.0,"rank":5,"code":"KEN"},"geometry":{"type":"Point","coordinates":[36.624,-0.325]}},{"type":"Feature","properties":{"name":"Mount Kenya","feature":"mountain","elevation_m":5199.0,"rank":4,"code":"KEN"},"geometry":{"type":"Point","coordinates":[37.3,-0.15]}},{"type":"Feature","properties":{"name":"Mount Stanley","feature":"mountain","elevation_m":4979.0,"rank":4,"code":"UGA"},"geometry":{"type":"Point","coordinates":[29.872,0.38]}},{"type":"Feature","properties":{"name":"Mount Kilimanjaro","feature":"mountain","elevation_m":5895.0,"rank":2,"code":"TZA"},"geometry":{"type":"Point","coordinates":[37.353,-3.076]}},{"type":"Feature","properties":{"name":"","feature":"depression","elevation_m":-156.0,"rank":3,"code":"DJI"},"geometry":{"type":"Point","coordinates":[42.413,11.672]}},{"type":"Feature","properties":{"name":"","feature":"mountain","elevation_m":2164.0,"rank":9,"code":"MWI"},"geometry":{"type":"Point","coordinates":[33.37,-9.92]}},{"type":"Feature","properties":{"name":"Mount Karisimbi","feature":"mountain","elevation_m":4519.0,"rank":9,"code":"RWA"},"geometry":{"type":"Point","coordinates":[29.45,-1.5]}},{"type":"Feature","properties":{"name":"Mount Tenakourou","feature":"mountain","elevation_m":747.0,"rank":9,"code":"BFA"},"geometry":{"type":"Point","coordinates":[-5.41,10.77]}},{"type":"Feature","properties":{"name":"Atakora Mountains","feature":"mountain","elevation_m":641.0,"rank":9,"code":"BEN"},"geometry":{"type":"Point","coordinates":[1.53,10.35]}},{"type":"Feature","properties":{"name":"Mount Sunzu","feature":"mountain","elevation_m":2067.0,"rank":9,"code":"ZMB"},"geometry":{"type":"Point","coordinates":[31.58,-9.18]}},{"type":"Feature","properties":{"name":"Emba Soira","feature":"mountain","elevation_m":3018.0,"rank":9,"code":"ERI"},"geometry":{"type":"Point","coordinates":[39.53,14.75]}},{"type":"Feature","properties":{"name":"","feature":"spot elevation","elevation_m":581.0,"rank":9,"code":"GIN"},"geometry":{"type":"Point","coordinates":[-12.54,12.37]}},{"type":"Feature","properties":{"name":"Sapitwa","feature":"mountain","elevation_m":3003.0,"rank":9,"code":"MWI"},"geometry":{"type":"Point","coordinates":[35.59,-15.95]}},{"type":"Feature","properties":{"name":"Pico Basilé","feature":"mountain","elevation_m":3008.0,"rank":9,"code":"GNQ"},"geometry":{"type":"Point","coordinates":[8.76,3.59]}},{"type":"Feature","properties":{"name":"Bikku Bitti","feature":"mountain","elevation_m":2266.0,"rank":9,"code":"LBY"},"geometry":{"type":"Point","coordinates":[19.21,22.03]}},{"type":"Feature","properties":{"name":"Mtorwi","feature":"mountain","elevation_m":2980.0,"rank":9,"code":"TZA"},"geometry":{"type":"Point","coordinates":[34.02,-9.08]}},{"type":"Feature","properties":{"name":"Mousa Ali","feature":"mountain","elevation_m":2021.0,"rank":9,"code":"DJI"},"geometry":{"type":"Point","coordinates":[42.41,12.45]}},{"type":"Feature","properties":{"name":"Mount Wuteve","feature":"mountain","elevation_m":1380.0,"rank":9,"code":"LBR"},"geometry":{"type":"Point","coordinates":[-9.86,8.14]}},{"type":"Feature","properties":{"name":"Mount Afadja","feature":"mountain","elevation_m":885.0,"rank":9,"code":"GHA"},"geometry":{"type":"Point","coordinates":[0.53,7.15]}},{"type":"Feature","properties":{"name":"Mount Mitra","feature":"mountain","elevation_m":1200.0,"rank":9,"code":"GNQ"},"geometry":{"type":"Point","coordinates":[9.97,1.39]}},{"type":"Feature","properties":{"name":"Mont Ngaoui","feature":"mountain","elevation_m":1410.0,"rank":9,"code":"CAF"},"geometry":{"type":"Point","coordinates":[14.9,6.59]}},{"type":"Feature","properties":{"name":"Mont Nabemba","feature":"mountain","elevation_m":1020.0,"rank":9,"code":"COG"},"geometry":{"type":"Point","coordinates":[13.99,1.84]}},{"type":"Feature","properties":{"name":"Mont Mohi","feature":"mountain","elevation_m":3480.0,"rank":9,"code":"COD"},"geometry":{"type":"Point","coordinates":[28.78,-2.95]}},{"type":"Feature","properties":{"name":"Mount Heha","feature":"mountain","elevation_m":2670.0,"rank":9,"code":"BDI"},"geometry":{"type":"Point","coordinates":[29.5,-3.6]}},{"type":"Feature","properties":{"name":"Mount Cameroon","feature":"mountain","elevation_m":4040.0,"rank":9,"code":"CMR"},"geometry":{"type":"Point","coordinates":[9.17,4.22]}},{"type":"Feature","properties":{"name":"Mont Bengoué","feature":"mountain","elevation_m":1070.0,"rank":9,"code":"GAB"},"geometry":{"type":"Point","coordinates":[13.69,0.96]}},{"type":"Feature","properties":{"name":"Monalanong Hill","feature":"mountain","elevation_m":1494.0,"rank":9,"code":"BWA"},"geometry":{"type":"Point","coordinates":[25.67,-24.84]}},{"type":"Feature","properties":{"name":"Bongo Massif","feature":"mountain","elevation_m":1400.0,"rank":9,"code":"CAF"},"geometry":{"type":"Point","coordinates":[22.36,8.6]}},{"type":"Feature","properties":{"name":"Mafadi","feature":"mountain","elevation_m":3451.0,"rank":9,"code":"ZAF"},"geometry":{"type":"Point","coordinates":[29.36,-29.2]}},{"type":"Feature","properties":{"name":"Kdeyyat ej Joul","feature":"mountain","elevation_m":915.0,"rank":9,"code":"MRT"},"geometry":{"type":"Point","coordinates":[-14.33,19.72]}},{"type":"Feature","properties":{"name":"Jebel Lkst","feature":"mountain","elevation_m":2359.0,"rank":9,"code":"MAR"},"geometry":{"type":"Point","coordinates":[-9.08,29.79]}},{"type":"Feature","properties":{"name":"Jebel ech Chambi","feature":"mountain","elevation_m":1544.0,"rank":9,"code":"TUN"},"geometry":{"type":"Point","coordinates":[8.68,35.2]}},{"type":"Feature","properties":{"name":"Jabal Oda","feature":"mountain","elevation_m":2260.0,"rank":9,"code":"SDN"},"geometry":{"type":"Point","coordinates":[36.67,20.34]}},{"type":"Feature","properties":{"name":"Mount Hombori","feature":"mountain","elevation_m":1155.0,"rank":9,"code":"MLI"},"geometry":{"type":"Point","coordinates":[-1.68,15.26]}},{"type":"Feature","properties":{"name":"","feature":"spot elevation","elevation_m":262.0,"rank":9,"code":"GNB"},"geometry":{"type":"Point","coordinates":[-13.9,11.69]}},{"type":"Feature","properties":{"name":"Gugu","feature":"mountain","elevation_m":3626.0,"rank":9,"code":"ETH"},"geometry":{"type":"Point","coordinates":[39.96,8.21]}},{"type":"Feature","properties":{"name":"Mount Catherine","feature":"mountain","elevation_m":2629.0,"rank":9,"code":"EGY"},"geometry":{"type":"Point","coordinates":[33.95,28.51]}},{"type":"Feature","properties":{"name":"","feature":"spot elevation","elevation_m":53.0,"rank":9,"code":"SEN"},"geometry":{"type":"Point","coordinates":[-13.99,13.57]}},{"type":"Feature","properties":{"name":"Emlembe","feature":"mountain","elevation_m":1862.0,"rank":9,"code":"ZAF"},"geometry":{"type":"Point","coordinates":[31.13,-25.92]}},{"type":"Feature","properties":{"name":"Chappal Waddi","feature":"mountain","elevation_m":2419.0,"rank":9,"code":"NGA"},"geometry":{"type":"Point","coordinates":[11.72,7.06]}},{"type":"Feature","properties":{"name":"Amba Farit","feature":"mountain","elevation_m":4270.0,"rank":9,"code":"ETH"},"geometry":{"type":"Point","coordinates":[39.1,10.95]}},{"type":"Feature","properties":{"name":"Adrar Bou Nasser","feature":"mountain","elevation_m":3340.0,"rank":9,"code":"MAR"},"geometry":{"type":"Point","coordinates":[-3.88,33.59]}},{"type":"Feature","properties":{"name":"Kennedy Peak","feature":"mountain","elevation_m":2703.0,"rank":7,"code":"MMR"},"geometry":{"type":"Point","coordinates":[93.773,23.332]}},{"type":"Feature","properties":{"name":"Loi Leng","feature":"mountain","elevation_m":2673.0,"rank":7,"code":"MMR"},"geometry":{"type":"Point","coordinates":[98.091,22.66]}},{"type":"Feature","properties":{"name":"Doi Inthanon","feature":"mountain","elevation_m":2580.0,"rank":7,"code":"THA"},"geometry":{"type":"Point","coordinates":[98.491,18.598]}},{"type":"Feature","properties":{"name":"Myinmoletkat Taung","feature":"mountain","elevation_m":2072.0,"rank":7,"code":"MMR"},"geometry":{"type":"Point","coordinates":[98.813,13.481]}},{"type":"Feature","properties":{"name":"Phnom Aural","feature":"mountain","elevation_m":1813.0,"rank":7,"code":"KHM"},"geometry":{"type":"Point","coordinates":[104.176,12.051]}},{"type":"Feature","properties":{"name":"Ngoc Linh","feature":"mountain","elevation_m":2598.0,"rank":7,"code":"VNM"},"geometry":{"type":"Point","coordinates":[108.015,15.162]}},{"type":"Feature","properties":{"name":"Chu Yang Sin","feature":"mountain","elevation_m":2420.0,"rank":7,"code":"VNM"},"geometry":{"type":"Point","coordinates":[108.43,12.404]}},{"type":"Feature","properties":{"name":"Kangju Kangri","feature":"mountain","elevation_m":6725.0,"rank":7,"code":"IND"},"geometry":{"type":"Point","coordinates":[78.489,33.751]}},{"type":"Feature","properties":{"name":"Mount Nun","feature":"mountain","elevation_m":7135.0,"rank":7,"code":"IND"},"geometry":{"type":"Point","coordinates":[76.024,33.984]}},{"type":"Feature","properties":{"name":"Obasta Tsukai","feature":"mountain","elevation_m":3452.0,"rank":7,"code":"PAK"},"geometry":{"type":"Point","coordinates":[69.937,31.694]}},{"type":"Feature","properties":{"name":"Mount Victoria","feature":"mountain","elevation_m":3053.0,"rank":7,"code":"MMR"},"geometry":{"type":"Point","coordinates":[93.917,21.243]}},{"type":"Feature","properties":{"name":"Laotzyunshan","feature":"mountain","elevation_m":4500.0,"rank":7,"code":"CHN"},"geometry":{"type":"Point","coordinates":[99.617,26.873]}},{"type":"Feature","properties":{"name":"Ikh Bogd","feature":"mountain","elevation_m":3957.0,"rank":7,"code":"MNG"},"geometry":{"type":"Point","coordinates":[100.238,45.005]}},{"type":"Feature","properties":{"name":"Mönkh Khairkhan","feature":"mountain","elevation_m":4231.0,"rank":7,"code":"MNG"},"geometry":{"type":"Point","coordinates":[91.465,46.89]}},{"type":"Feature","properties":{"name":"Kangze'gyai","feature":"mountain","elevation_m":5808.0,"rank":7,"code":"CHN"},"geometry":{"type":"Point","coordinates":[97.716,38.515]}},{"type":"Feature","properties":{"name":"Dund Sayhni Nuru","feature":"mountain","elevation_m":2825.0,"rank":7,"code":"MNG"},"geometry":{"type":"Point","coordinates":[103.775,43.647]}},{"type":"Feature","properties":{"name":"Huanggangliang","feature":"mountain","elevation_m":2029.0,"rank":7,"code":"CHN"},"geometry":{"type":"Point","coordinates":[117.581,43.542]}},{"type":"Feature","properties":{"name":"","feature":"spot elevation","elevation_m":2300.0,"rank":7,"code":"CHN"},"geometry":{"type":"Point","coordinates":[110.581,30.245]}},{"type":"Feature","properties":{"name":"Phoenix Mountain","feature":"mountain","elevation_m":2570.0,"rank":7,"code":"CHN"},"geometry":{"type":"Point","coordinates":[108.678,27.895]}},{"type":"Feature","properties":{"name":"Shengtang Mountain","feature":"mountain","elevation_m":1935.0,"rank":7,"code":"CHN"},"geometry":{"type":"Point","coordinates":[110.1,23.99]}},{"type":"Feature","properties":{"name":"Mount Hua","feature":"mountain","elevation_m":2130.0,"rank":7,"code":"CHN"},"geometry":{"type":"Point","coordinates":[110.129,34.436]}},{"type":"Feature","properties":{"name":"Helan Mountains","feature":"mountain","elevation_m":3540.0,"rank":7,"code":"CHN"},"geometry":{"type":"Point","coordinates":[105.945,38.837]}},{"type":"Feature","properties":{"name":"Wuzhi Mountain","feature":"mountain","elevation_m":1840.0,"rank":7,"code":"CHN"},"geometry":{"type":"Point","coordinates":[109.713,18.913]}},{"type":"Feature","properties":{"name":"Fansipan","feature":"mountain","elevation_m":3142.0,"rank":7,"code":"VNM"},"geometry":{"type":"Point","coordinates":[103.772,22.313]}},{"type":"Feature","properties":{"name":"Anamudi","feature":"mountain","elevation_m":2695.0,"rank":7,"code":"IND"},"geometry":{"type":"Point","coordinates":[77.067,10.17]}},{"type":"Feature","properties":{"name":"Mahendragiri","feature":"mountain","elevation_m":1501.0,"rank":7,"code":"IND"},"geometry":{"type":"Point","coordinates":[84.357,18.974]}},{"type":"Feature","properties":{"name":"Salher","feature":"mountain","elevation_m":1567.0,"rank":7,"code":"IND"},"geometry":{"type":"Point","coordinates":[73.93,20.711]}},{"type":"Feature","properties":{"name":"Kodachadri","feature":"mountain","elevation_m":1343.0,"rank":7,"code":"IND"},"geometry":{"type":"Point","coordinates":[74.862,13.88]}},{"type":"Feature","properties":{"name":"Guru Shikhar","feature":"mountain","elevation_m":1722.0,"rank":7,"code":"IND"},"geometry":{"type":"Point","coordinates":[72.778,24.657]}},{"type":"Feature","properties":{"name":"Huanggangshan","feature":"mountain","elevation_m":2170.0,"rank":7,"code":"CHN"},"geometry":{"type":"Point","coordinates":[117.788,27.853]}},{"type":"Feature","properties":{"name":"Gora Tastau","feature":"mountain","elevation_m":2992.0,"rank":7,"code":"KAZ"},"geometry":{"type":"Point","coordinates":[82.493,47.199]}},{"type":"Feature","properties":{"name":"","feature":"spot elevation","elevation_m":5982.0,"rank":7,"code":"KGZ"},"geometry":{"type":"Point","coordinates":[77.671,41.076]}},{"type":"Feature","properties":{"name":"Pik Talgar","feature":"mountain","elevation_m":4979.0,"rank":7,"code":"KAZ"},"geometry":{"type":"Point","coordinates":[77.331,43.105]}},{"type":"Feature","properties":{"name":"Batura Sar","feature":"mountain","elevation_m":7795.0,"rank":7,"code":"PAK"},"geometry":{"type":"Point","coordinates":[74.56,36.538]}},{"type":"Feature","properties":{"name":"","feature":"spot elevation","elevation_m":1961.0,"rank":7,"code":"IND"},"geometry":{"type":"Point","coordinates":[91.793,25.425]}},{"type":"Feature","properties":{"name":"Aktag","feature":"mountain","elevation_m":6748.0,"rank":7,"code":"CHN"},"geometry":{"type":"Point","coordinates":[84.602,36.734]}},{"type":"Feature","properties":{"name":"Liushi Shan","feature":"mountain","elevation_m":7167.0,"rank":7,"code":"CHN"},"geometry":{"type":"Point","coordinates":[80.926,35.323]}},{"type":"Feature","properties":{"name":"Namcha Barwa","feature":"mountain","elevation_m":7782.0,"rank":7,"code":"CHN"},"geometry":{"type":"Point","coordinates":[95.066,29.643]}},{"type":"Feature","properties":{"name":"Mount Shikengkong","feature":"mountain","elevation_m":1895.0,"rank":7,"code":"CHN"},"geometry":{"type":"Point","coordinates":[113.016,24.93]}},{"type":"Feature","properties":{"name":"","feature":"spot elevation","elevation_m":1047.0,"rank":7,"code":"CHN"},"geometry":{"type":"Point","coordinates":[129.561,47.507]}},{"type":"Feature","properties":{"name":"Qingliang Feng Mountain","feature":"mountain","elevation_m":1787.0,"rank":7,"code":"CHN"},"geometry":{"type":"Point","coordinates":[118.858,30.121]}},{"type":"Feature","properties":{"name":"","feature":"spot elevation","elevation_m":1150.0,"rank":7,"code":"CHN"},"geometry":{"type":"Point","coordinates":[121.978,51.106]}},{"type":"Feature","properties":{"name":"Mount Tate","feature":"mountain","elevation_m":3015.0,"rank":7,"code":"JPN"},"geometry":{"type":"Point","coordinates":[137.629,36.595]}},{"type":"Feature","properties":{"name":"Mount Iwate","feature":"mountain","elevation_m":2038.0,"rank":7,"code":"JPN"},"geometry":{"type":"Point","coordinates":[140.989,39.86]}},{"type":"Feature","properties":{"name":"","feature":"spot elevation","elevation_m":-56.0,"rank":7,"code":"KAZ"},"geometry":{"type":"Point","coordinates":[55.366,45.671]}},{"type":"Feature","properties":{"name":"","feature":"spot elevation","elevation_m":-132.0,"rank":7,"code":"KAZ"},"geometry":{"type":"Point","coordinates":[51.814,43.498]}},{"type":"Feature","properties":{"name":"Kuh-e Ruzeh","feature":"mountain","elevation_m":2941.0,"rank":7,"code":"TKM"},"geometry":{"type":"Point","coordinates":[58.101,37.804]}},{"type":"Feature","properties":{"name":"Mount Sabalan","feature":"mountain","elevation_m":4814.0,"rank":7,"code":"IRN"},"geometry":{"type":"Point","coordinates":[47.822,38.255]}},{"type":"Feature","properties":{"name":"Mount Taftan","feature":"mountain","elevation_m":3941.0,"rank":7,"code":"IRN"},"geometry":{"type":"Point","coordinates":[61.132,28.63]}},{"type":"Feature","properties":{"name":"Ras Koh Hills","feature":"mountain","elevation_m":3003.0,"rank":7,"code":"PAK"},"geometry":{"type":"Point","coordinates":[65.182,28.834]}},{"type":"Feature","properties":{"name":"Kizlar Sivrisi","feature":"mountain","elevation_m":3070.0,"rank":7,"code":"TUR"},"geometry":{"type":"Point","coordinates":[30.15,36.615]}},{"type":"Feature","properties":{"name":"Uludağ","feature":"mountain","elevation_m":2543.0,"rank":7,"code":"TUR"},"geometry":{"type":"Point","coordinates":[29.218,40.092]}},{"type":"Feature","properties":{"name":"Qurnat as Sawda'","feature":"mountain","elevation_m":3088.0,"rank":7,"code":"LBN"},"geometry":{"type":"Point","coordinates":[36.103,34.315]}},{"type":"Feature","properties":{"name":"Demirkazık Peak","feature":"mountain","elevation_m":3756.0,"rank":7,"code":"TUR"},"geometry":{"type":"Point","coordinates":[35.156,37.836]}},{"type":"Feature","properties":{"name":"Kaçkar Dağı","feature":"mountain","elevation_m":3931.0,"rank":7,"code":"TUR"},"geometry":{"type":"Point","coordinates":[41.128,40.841]}},{"type":"Feature","properties":{"name":"Kūh-e Ḩājjī Ebrāhīm","feature":"mountain","elevation_m":3587.0,"rank":7,"code":"IRQ"},"geometry":{"type":"Point","coordinates":[45.006,36.545]}},{"type":"Feature","properties":{"name":"Jabal Jihaf","feature":"mountain","elevation_m":3277.0,"rank":7,"code":"YEM"},"geometry":{"type":"Point","coordinates":[44.521,13.741]}},{"type":"Feature","properties":{"name":"","feature":"spot elevation","elevation_m":1730.0,"rank":7,"code":"YEM"},"geometry":{"type":"Point","coordinates":[49.048,14.966]}},{"type":"Feature","properties":{"name":"Daiyun Shan","feature":"mountain","elevation_m":1856.0,"rank":6,"code":"CHN"},"geometry":{"type":"Point","coordinates":[118.184,25.681]}},{"type":"Feature","properties":{"name":"Yunwu Mountain","feature":"mountain","elevation_m":1867.0,"rank":6,"code":"CHN"},"geometry":{"type":"Point","coordinates":[116.701,41.096]}},{"type":"Feature","properties":{"name":"Seoraksan","feature":"mountain","elevation_m":1708.0,"rank":6,"code":"KOR"},"geometry":{"type":"Point","coordinates":[128.473,38.142]}},{"type":"Feature","properties":{"name":"Jirisan","feature":"mountain","elevation_m":1915.0,"rank":6,"code":"KOR"},"geometry":{"type":"Point","coordinates":[127.73,35.337]}},{"type":"Feature","properties":{"name":"Jiuling Mountains","feature":"mountain","elevation_m":1686.0,"rank":6,"code":"CHN"},"geometry":{"type":"Point","coordinates":[114.95,28.884]}},{"type":"Feature","properties":{"name":"Hongtu Zhang","feature":"mountain","elevation_m":1265.0,"rank":6,"code":"CHN"},"geometry":{"type":"Point","coordinates":[115.937,23.769]}},{"type":"Feature","properties":{"name":"Mount Tahan","feature":"mountain","elevation_m":2190.0,"rank":6,"code":"MYS"},"geometry":{"type":"Point","coordinates":[102.233,4.634]}},{"type":"Feature","properties":{"name":"Khao Luang","feature":"mountain","elevation_m":1780.0,"rank":6,"code":"THA"},"geometry":{"type":"Point","coordinates":[99.734,8.498]}},{"type":"Feature","properties":{"name":"Pidurutalagala","feature":"mountain","elevation_m":2524.0,"rank":6,"code":"LKA"},"geometry":{"type":"Point","coordinates":[80.774,7.001]}},{"type":"Feature","properties":{"name":"Yushan Main Peak","feature":"mountain","elevation_m":3952.0,"rank":6,"code":"TWN"},"geometry":{"type":"Point","coordinates":[120.957,23.47]}},{"type":"Feature","properties":{"name":"Mount Unzen","feature":"mountain","elevation_m":1500.0,"rank":6,"code":"JPN"},"geometry":{"type":"Point","coordinates":[130.294,32.757]}},{"type":"Feature","properties":{"name":"Mount Yonaha","feature":"mountain","elevation_m":498.0,"rank":6,"code":"JPN"},"geometry":{"type":"Point","coordinates":[128.217,26.716]}},{"type":"Feature","properties":{"name":"Mount Fuji","feature":"mountain","elevation_m":3776.0,"rank":6,"code":"JPN"},"geometry":{"type":"Point","coordinates":[138.731,35.358]}},{"type":"Feature","properties":{"name":"Asahi-dake","feature":"mountain","elevation_m":2290.0,"rank":6,"code":"JPN"},"geometry":{"type":"Point","coordinates":[142.855,43.658]}},{"type":"Feature","properties":{"name":"Jebel Shams","feature":"mountain","elevation_m":3035.0,"rank":6,"code":"OMN"},"geometry":{"type":"Point","coordinates":[57.264,23.237]}},{"type":"Feature","properties":{"name":"Damavand","feature":"mountain","elevation_m":5610.0,"rank":6,"code":"IRN"},"geometry":{"type":"Point","coordinates":[52.109,35.955]}},{"type":"Feature","properties":{"name":"Kūh-e Hezār","feature":"mountain","elevation_m":4465.0,"rank":6,"code":"IRN"},"geometry":{"type":"Point","coordinates":[57.272,29.512]}},{"type":"Feature","properties":{"name":"Kūh-e Nāy Band","feature":"mountain","elevation_m":2960.0,"rank":6,"code":"IRN"},"geometry":{"type":"Point","coordinates":[57.375,32.45]}},{"type":"Feature","properties":{"name":"Jabal an Nabi Shu'ayb","feature":"mountain","elevation_m":3666.0,"rank":6,"code":"YEM"},"geometry":{"type":"Point","coordinates":[43.971,15.275]}},{"type":"Feature","properties":{"name":"Jabal Sawda","feature":"mountain","elevation_m":3000.0,"rank":6,"code":"SAU"},"geometry":{"type":"Point","coordinates":[42.364,18.256]}},{"type":"Feature","properties":{"name":"Jebel Jar","feature":"mountain","elevation_m":2300.0,"rank":6,"code":"SAU"},"geometry":{"type":"Point","coordinates":[38.208,24.566]}},{"type":"Feature","properties":{"name":"Otgontenger","feature":"mountain","elevation_m":4000.0,"rank":5,"code":"MNG"},"geometry":{"type":"Point","coordinates":[97.55,47.6]}},{"type":"Feature","properties":{"name":"Amne Machin","feature":"mountain","elevation_m":6282.0,"rank":5,"code":"CHN"},"geometry":{"type":"Point","coordinates":[99.467,34.8]}},{"type":"Feature","properties":{"name":"Mount Taibai","feature":"mountain","elevation_m":3767.0,"rank":5,"code":"CHN"},"geometry":{"type":"Point","coordinates":[107.75,33.95]}},{"type":"Feature","properties":{"name":"Nanda Devi","feature":"mountain","elevation_m":7817.0,"rank":5,"code":"IND"},"geometry":{"type":"Point","coordinates":[79.971,30.542]}},{"type":"Feature","properties":{"name":"Daba Mountains","feature":"mountain","elevation_m":2708.0,"rank":5,"code":"CHN"},"geometry":{"type":"Point","coordinates":[109.0,32.25]}},{"type":"Feature","properties":{"name":"Mazong Mountain","feature":"mountain","elevation_m":2584.0,"rank":5,"code":"CHN"},"geometry":{"type":"Point","coordinates":[97.119,41.524]}},{"type":"Feature","properties":{"name":"Bogda Peak","feature":"mountain","elevation_m":5445.0,"rank":4,"code":"CHN"},"geometry":{"type":"Point","coordinates":[88.317,43.795]}},{"type":"Feature","properties":{"name":"Ismoil Somoni Peak","feature":"mountain","elevation_m":7495.0,"rank":4,"code":"TJK"},"geometry":{"type":"Point","coordinates":[72.022,38.932]}},{"type":"Feature","properties":{"name":"Gora Manas","feature":"mountain","elevation_m":4482.0,"rank":4,"code":"KGZ"},"geometry":{"type":"Point","coordinates":[71.054,42.29]}},{"type":"Feature","properties":{"name":"Shāh Fōlādī","feature":"mountain","elevation_m":5048.0,"rank":4,"code":"AFG"},"geometry":{"type":"Point","coordinates":[67.628,34.642]}},{"type":"Feature","properties":{"name":"Kuh-e Jang Qal'eh","feature":"mountain","elevation_m":4171.0,"rank":4,"code":"AFG"},"geometry":{"type":"Point","coordinates":[64.188,33.117]}},{"type":"Feature","properties":{"name":"Mount Wutai","feature":"mountain","elevation_m":3058.0,"rank":4,"code":"CHN"},"geometry":{"type":"Point","coordinates":[113.57,39.088]}},{"type":"Feature","properties":{"name":"Mount Gongga","feature":"mountain","elevation_m":7556.0,"rank":3,"code":"CHN"},"geometry":{"type":"Point","coordinates":[101.879,29.596]}},{"type":"Feature","properties":{"name":"Dhaulagiri","feature":"mountain","elevation_m":8172.0,"rank":3,"code":"NPL"},"geometry":{"type":"Point","coordinates":[83.495,28.696]}},{"type":"Feature","properties":{"name":"Nganglong Mountains","feature":"mountain","elevation_m":6720.0,"rank":3,"code":"CHN"},"geometry":{"type":"Point","coordinates":[81.0,32.817]}},{"type":"Feature","properties":{"name":"Geladaindong Peak","feature":"mountain","elevation_m":6621.0,"rank":3,"code":"CHN"},"geometry":{"type":"Point","coordinates":[91.083,33.417]}},{"type":"Feature","properties":{"name":"Mount Everest","feature":"mountain","elevation_m":8848.0,"rank":1,"code":"NPL"},"geometry":{"type":"Point","coordinates":[86.881,27.98]}},{"type":"Feature","properties":{"name":"Kangto","feature":"mountain","elevation_m":7060.0,"rank":4,"code":"CHN"},"geometry":{"type":"Point","coordinates":[92.532,27.875]}},{"type":"Feature","properties":{"name":"Mount Nyenchen Tanglha","feature":"mountain","elevation_m":7162.0,"rank":6,"code":"CHN"},"geometry":{"type":"Point","coordinates":[90.589,30.39]}},{"type":"Feature","properties":{"name":"Turpan Depression","feature":"depression","elevation_m":-154.0,"rank":2,"code":"CHN"},"geometry":{"type":"Point","coordinates":[89.34,42.769]}},{"type":"Feature","properties":{"name":"","feature":"depression","elevation_m":-416.0,"rank":2,"code":"JOR"},"geometry":{"type":"Point","coordinates":[35.475,31.515]}},{"type":"Feature","properties":{"name":"Khyber Pass","feature":"pass","elevation_m":1070.0,"rank":2,"code":"PAK"},"geometry":{"type":"Point","coordinates":[71.098,34.098]}},{"type":"Feature","properties":{"name":"K2","feature":"mountain","elevation_m":8611.0,"rank":2,"code":"CHN"},"geometry":{"type":"Point","coordinates":[76.513,35.882]}},{"type":"Feature","properties":{"name":"Ulugh Muztagh","feature":"mountain","elevation_m":6973.0,"rank":2,"code":"CHN"},"geometry":{"type":"Point","coordinates":[87.413,36.417]}},{"type":"Feature","properties":{"name":"Mount Kailash","feature":"mountain","elevation_m":6638.0,"rank":2,"code":"CHN"},"geometry":{"type":"Point","coordinates":[81.313,31.067]}},{"type":"Feature","properties":{"name":"Zard Kuh","feature":"mountain","elevation_m":4548.0,"rank":9,"code":"IRN"},"geometry":{"type":"Point","coordinates":[50.09,32.37]}},{"type":"Feature","properties":{"name":"","feature":"spot elevation","elevation_m":1020.0,"rank":9,"code":"PSX"},"geometry":{"type":"Point","coordinates":[35.11,31.58]}},{"type":"Feature","properties":{"name":"","feature":"spot elevation","elevation_m":4643.0,"rank":9,"code":"TJK"},"geometry":{"type":"Point","coordinates":[68.17,38.95]}},{"type":"Feature","properties":{"name":"","feature":"spot elevation","elevation_m":5621.0,"rank":9,"code":"KGZ"},"geometry":{"type":"Point","coordinates":[70.72,39.62]}},{"type":"Feature","properties":{"name":"Tirich Mir","feature":"mountain","elevation_m":7708.0,"rank":9,"code":"PAK"},"geometry":{"type":"Point","coordinates":[71.84,36.25]}},{"type":"Feature","properties":{"name":"Mount Tianzhu","feature":"mountain","elevation_m":1760.0,"rank":9,"code":"CHN"},"geometry":{"type":"Point","coordinates":[116.19,31.06]}},{"type":"Feature","properties":{"name":"Tavan Bogd","feature":"mountain","elevation_m":4374.0,"rank":9,"code":"MNG"},"geometry":{"type":"Point","coordinates":[87.82,49.15]}},{"type":"Feature","properties":{"name":"Tai Mo Shan","feature":"mountain","elevation_m":957.0,"rank":9,"code":"HKG"},"geometry":{"type":"Point","coordinates":[114.12,22.41]}},{"type":"Feature","properties":{"name":"Sikaram","feature":"mountain","elevation_m":4755.0,"rank":9,"code":"AFG"},"geometry":{"type":"Point","coordinates":[69.9,34.04]}},{"type":"Feature","properties":{"name":"Saser Kangri","feature":"mountain","elevation_m":6934.0,"rank":9,"code":"IND"},"geometry":{"type":"Point","coordinates":[77.83,35.17]}},{"type":"Feature","properties":{"name":"Senlin Shan","feature":"mountain","elevation_m":1498.0,"rank":9,"code":"CHN"},"geometry":{"type":"Point","coordinates":[130.63,43.18]}},{"type":"Feature","properties":{"name":"Mount Saramati","feature":"mountain","elevation_m":3826.0,"rank":9,"code":"MMR"},"geometry":{"type":"Point","coordinates":[95.04,25.73]}},{"type":"Feature","properties":{"name":"","feature":"spot elevation","elevation_m":83.0,"rank":9,"code":"QAT"},"geometry":{"type":"Point","coordinates":[51.05,24.72]}},{"type":"Feature","properties":{"name":"Purog Kangri","feature":"mountain","elevation_m":6929.0,"rank":9,"code":"CHN"},"geometry":{"type":"Point","coordinates":[89.21,33.92]}},{"type":"Feature","properties":{"name":"Pipa Dingzi","feature":"mountain","elevation_m":1397.0,"rank":9,"code":"CHN"},"geometry":{"type":"Point","coordinates":[128.17,43.99]}},{"type":"Feature","properties":{"name":"Jengish Chokusu","feature":"mountain","elevation_m":7439.0,"rank":9,"code":"KGZ"},"geometry":{"type":"Point","coordinates":[80.13,42.04]}},{"type":"Feature","properties":{"name":"Pik Karakol","feature":"mountain","elevation_m":5216.0,"rank":9,"code":"KGZ"},"geometry":{"type":"Point","coordinates":[78.46,42.16]}},{"type":"Feature","properties":{"name":"Phu Soi Dao","feature":"mountain","elevation_m":2120.0,"rank":9,"code":"LAO"},"geometry":{"type":"Point","coordinates":[101.01,17.73]}},{"type":"Feature","properties":{"name":"Phou Bia","feature":"mountain","elevation_m":2830.0,"rank":9,"code":"LAO"},"geometry":{"type":"Point","coordinates":[103.14,18.98]}},{"type":"Feature","properties":{"name":"Baekdu Mountain","feature":"mountain","elevation_m":2744.0,"rank":9,"code":"CHN"},"geometry":{"type":"Point","coordinates":[128.09,42.0]}},{"type":"Feature","properties":{"name":"Noshaq","feature":"mountain","elevation_m":7492.0,"rank":9,"code":"PAK"},"geometry":{"type":"Point","coordinates":[71.781,36.422]}},{"type":"Feature","properties":{"name":"Nanga Parbat","feature":"mountain","elevation_m":8125.0,"rank":9,"code":"PAK"},"geometry":{"type":"Point","coordinates":[74.59,35.24]}},{"type":"Feature","properties":{"name":"Nanfengmian","feature":"mountain","elevation_m":2140.0,"rank":9,"code":"CHN"},"geometry":{"type":"Point","coordinates":[114.04,26.31]}},{"type":"Feature","properties":{"name":"Mowdok Mual","feature":"mountain","elevation_m":1052.0,"rank":9,"code":"MMR"},"geometry":{"type":"Point","coordinates":[92.62,21.88]}},{"type":"Feature","properties":{"name":"Mount Ararat","feature":"mountain","elevation_m":5137.0,"rank":9,"code":"TUR"},"geometry":{"type":"Point","coordinates":[44.3,39.7]}},{"type":"Feature","properties":{"name":"Maotou Shan","feature":"mountain","elevation_m":3306.0,"rank":9,"code":"CHN"},"geometry":{"type":"Point","coordinates":[100.63,24.52]}},{"type":"Feature","properties":{"name":"Lunpo Gangri","feature":"mountain","elevation_m":7095.0,"rank":9,"code":"CHN"},"geometry":{"type":"Point","coordinates":[84.61,29.83]}},{"type":"Feature","properties":{"name":"","feature":"spot elevation","elevation_m":281.0,"rank":9,"code":"KWT"},"geometry":{"type":"Point","coordinates":[46.79,29.12]}},{"type":"Feature","properties":{"name":"Mount Kuju","feature":"mountain","elevation_m":1788.0,"rank":9,"code":"JPN"},"geometry":{"type":"Point","coordinates":[131.25,33.08]}},{"type":"Feature","properties":{"name":"Kuh-e Siah Khvani","feature":"mountain","elevation_m":3314.0,"rank":9,"code":"IRN"},"geometry":{"type":"Point","coordinates":[59.05,36.28]}},{"type":"Feature","properties":{"name":"Kūh-e Garīn","feature":"mountain","elevation_m":3630.0,"rank":9,"code":"IRN"},"geometry":{"type":"Point","coordinates":[48.48,33.96]}},{"type":"Feature","properties":{"name":"Kūh-e Fāreghān","feature":"mountain","elevation_m":3240.0,"rank":9,"code":"IRN"},"geometry":{"type":"Point","coordinates":[56.35,27.89]}},{"type":"Feature","properties":{"name":"Dena","feature":"mountain","elevation_m":4409.0,"rank":9,"code":"IRN"},"geometry":{"type":"Point","coordinates":[51.44,30.95]}},{"type":"Feature","properties":{"name":"Kongur Tagh","feature":"mountain","elevation_m":7649.0,"rank":9,"code":"CHN"},"geometry":{"type":"Point","coordinates":[75.31,38.59]}},{"type":"Feature","properties":{"name":"Köketau","feature":"mountain","elevation_m":4622.0,"rank":9,"code":"KAZ"},"geometry":{"type":"Point","coordinates":[80.94,45.17]}},{"type":"Feature","properties":{"name":"Kanchenjunga","feature":"mountain","elevation_m":8586.0,"rank":9,"code":"IND"},"geometry":{"type":"Point","coordinates":[88.15,27.7]}},{"type":"Feature","properties":{"name":"Kabbaldurga","feature":"mountain","elevation_m":921.0,"rank":9,"code":"IND"},"geometry":{"type":"Point","coordinates":[77.3,12.5]}},{"type":"Feature","properties":{"name":"Jabal Yibir","feature":"mountain","elevation_m":1527.0,"rank":9,"code":"ARE"},"geometry":{"type":"Point","coordinates":[56.13,25.66]}},{"type":"Feature","properties":{"name":"Jabal Ram","feature":"mountain","elevation_m":1754.0,"rank":9,"code":"JOR"},"geometry":{"type":"Point","coordinates":[35.4,29.57]}},{"type":"Feature","properties":{"name":"Mount Hermon","feature":"mountain","elevation_m":2814.0,"rank":9,"code":"SYR"},"geometry":{"type":"Point","coordinates":[35.86,33.41]}},{"type":"Feature","properties":{"name":"Jabal al-Lawz","feature":"mountain","elevation_m":2580.0,"rank":9,"code":"SAU"},"geometry":{"type":"Point","coordinates":[35.29,28.69]}},{"type":"Feature","properties":{"name":"Mountain of Smoke","feature":"mountain","elevation_m":134.0,"rank":9,"code":"BHR"},"geometry":{"type":"Point","coordinates":[50.55,26.04]}},{"type":"Feature","properties":{"name":"Mount Ishizuchi","feature":"mountain","elevation_m":1982.0,"rank":9,"code":"JPN"},"geometry":{"type":"Point","coordinates":[133.11,33.77]}},{"type":"Feature","properties":{"name":"","feature":"spot elevation","elevation_m":4330.0,"rank":9,"code":"CHN"},"geometry":{"type":"Point","coordinates":[102.91,26.15]}},{"type":"Feature","properties":{"name":"Hkakabo Razi","feature":"mountain","elevation_m":5881.0,"rank":9,"code":"MMR"},"geometry":{"type":"Point","coordinates":[97.54,28.33]}},{"type":"Feature","properties":{"name":"Meron","feature":"mountain","elevation_m":1208.0,"rank":9,"code":"ISR"},"geometry":{"type":"Point","coordinates":[35.41,33.0]}},{"type":"Feature","properties":{"name":"Hallasan","feature":"mountain","elevation_m":1950.0,"rank":9,"code":"KOR"},"geometry":{"type":"Point","coordinates":[126.52,33.36]}},{"type":"Feature","properties":{"name":"Gyala Peri","feature":"mountain","elevation_m":7294.0,"rank":9,"code":"CHN"},"geometry":{"type":"Point","coordinates":[94.97,29.81]}},{"type":"Feature","properties":{"name":"Mount Arlan","feature":"mountain","elevation_m":1880.0,"rank":9,"code":"TKM"},"geometry":{"type":"Point","coordinates":[54.54,39.67]}},{"type":"Feature","properties":{"name":"Gangkhar Puensum","feature":"mountain","elevation_m":7570.0,"rank":9,"code":"BTN"},"geometry":{"type":"Point","coordinates":[90.46,28.05]}},{"type":"Feature","properties":{"name":"Erciyes Dagi","feature":"mountain","elevation_m":3917.0,"rank":9,"code":"TUR"},"geometry":{"type":"Point","coordinates":[35.45,38.53]}},{"type":"Feature","properties":{"name":"Doddabetta","feature":"mountain","elevation_m":2636.0,"rank":9,"code":"IND"},"geometry":{"type":"Point","coordinates":[76.73,11.4]}},{"type":"Feature","properties":{"name":"Daxue shan","feature":"mountain","elevation_m":3500.0,"rank":9,"code":"CHN"},"geometry":{"type":"Point","coordinates":[99.64,24.11]}},{"type":"Feature","properties":{"name":"Cheekha Dar","feature":"mountain","elevation_m":3611.0,"rank":9,"code":"IRN"},"geometry":{"type":"Point","coordinates":[44.92,36.78]}},{"type":"Feature","properties":{"name":"Bukit Timah","feature":"mountain","elevation_m":176.0,"rank":9,"code":"SGP"},"geometry":{"type":"Point","coordinates":[103.79,1.35]}},{"type":"Feature","properties":{"name":"Mount Bazardüzü","feature":"mountain","elevation_m":4466.0,"rank":9,"code":"AZE"},"geometry":{"type":"Point","coordinates":[47.86,41.21]}},{"type":"Feature","properties":{"name":"Bairiga","feature":"mountain","elevation_m":6882.0,"rank":9,"code":"CHN"},"geometry":{"type":"Point","coordinates":[96.72,29.17]}},{"type":"Feature","properties":{"name":"Aýrybaba","feature":"mountain","elevation_m":3137.0,"rank":9,"code":"UZB"},"geometry":{"type":"Point","coordinates":[66.57,37.83]}},{"type":"Feature","properties":{"name":"Mount Aragats","feature":"mountain","elevation_m":4090.0,"rank":9,"code":"ARM"},"geometry":{"type":"Point","coordinates":[44.2,40.53]}},{"type":"Feature","properties":{"name":"Kizilkaya","feature":"mountain","elevation_m":3767.0,"rank":9,"code":"TUR"},"geometry":{"type":"Point","coordinates":[32.07,37.97]}},{"type":"Feature","properties":{"name":"","feature":"spot elevation","elevation_m":1503.0,"rank":9,"code":"YEM"},"geometry":{"type":"Point","coordinates":[54.02,12.56]}},{"type":"Feature","properties":{"name":"Kartala","feature":"mountain","elevation_m":2361.0,"rank":9,"code":"COM"},"geometry":{"type":"Point","coordinates":[43.37,-11.75]}},{"type":"Feature","properties":{"name":"Pic Boby","feature":"mountain","elevation_m":2658.0,"rank":6,"code":"MDG"},"geometry":{"type":"Point","coordinates":[46.883,-22.2]}},{"type":"Feature","properties":{"name":"Maromokotro","feature":"mountain","elevation_m":2876.0,"rank":9,"code":"MDG"},"geometry":{"type":"Point","coordinates":[48.97,-14.02]}},{"type":"Feature","properties":{"name":"Longnawan","feature":"mountain","elevation_m":2988.0,"rank":7,"code":"IDN"},"geometry":{"type":"Point","coordinates":[115.147,1.814]}},{"type":"Feature","properties":{"name":"Mount Mantalingajan","feature":"mountain","elevation_m":2085.0,"rank":7,"code":"PHL"},"geometry":{"type":"Point","coordinates":[117.677,8.846]}},{"type":"Feature","properties":{"name":"Fuyul Sojol","feature":"mountain","elevation_m":3030.0,"rank":7,"code":"IDN"},"geometry":{"type":"Point","coordinates":[120.201,0.615]}},{"type":"Feature","properties":{"name":"","feature":"spot elevation","elevation_m":3142.0,"rank":7,"code":"IDN"},"geometry":{"type":"Point","coordinates":[115.4,-8.313]}},{"type":"Feature","properties":{"name":"Mount Apo","feature":"mountain","elevation_m":2954.0,"rank":7,"code":"PHL"},"geometry":{"type":"Point","coordinates":[125.27,6.997]}},{"type":"Feature","properties":{"name":"Buntu Rantekambola","feature":"mountain","elevation_m":3455.0,"rank":6,"code":"IDN"},"geometry":{"type":"Point","coordinates":[120.025,-3.341]}},{"type":"Feature","properties":{"name":"Mount Kinabalu","feature":"mountain","elevation_m":4101.0,"rank":4,"code":"MYS"},"geometry":{"type":"Point","coordinates":[116.55,6.083]}},{"type":"Feature","properties":{"name":"Bukit Raya","feature":"mountain","elevation_m":2278.0,"rank":6,"code":"IDN"},"geometry":{"type":"Point","coordinates":[112.683,-0.667]}},{"type":"Feature","properties":{"name":"Tambora","feature":"mountain","elevation_m":2722.0,"rank":6,"code":"IDN"},"geometry":{"type":"Point","coordinates":[118.0,-8.25]}},{"type":"Feature","properties":{"name":"Gunung Semeru","feature":"mountain","elevation_m":3676.0,"rank":6,"code":"IDN"},"geometry":{"type":"Point","coordinates":[112.92,-8.108]}},{"type":"Feature","properties":{"name":"Gunung Merapi","feature":"mountain","elevation_m":2968.0,"rank":6,"code":"IDN"},"geometry":{"type":"Point","coordinates":[110.445,-7.541]}},{"type":"Feature","properties":{"name":"Gunung Cereme","feature":"mountain","elevation_m":3077.0,"rank":6,"code":"IDN"},"geometry":{"type":"Point","coordinates":[108.409,-6.888]}},{"type":"Feature","properties":{"name":"Gunung Abong Abong","feature":"mountain","elevation_m":2985.0,"rank":6,"code":"IDN"},"geometry":{"type":"Point","coordinates":[96.8,4.25]}},{"type":"Feature","properties":{"name":"Mount Kerinci","feature":"mountain","elevation_m":3805.0,"rank":6,"code":"IDN"},"geometry":{"type":"Point","coordinates":[101.271,-1.698]}},{"type":"Feature","properties":{"name":"Taal Volcano","feature":"mountain","elevation_m":400.0,"rank":6,"code":"PHL"},"geometry":{"type":"Point","coordinates":[120.993,14.002]}},{"type":"Feature","properties":{"name":"Mount Pulag","feature":"mountain","elevation_m":2934.0,"rank":6,"code":"PHL"},"geometry":{"type":"Point","coordinates":[120.905,16.596]}},{"type":"Feature","properties":{"name":"Mount Kanlaon","feature":"mountain","elevation_m":2430.0,"rank":6,"code":"PHL"},"geometry":{"type":"Point","coordinates":[123.142,10.456]}},{"type":"Feature","properties":{"name":"Pinatubo","feature":"mountain","elevation_m":1486.0,"rank":6,"code":"PHL"},"geometry":{"type":"Point","coordinates":[120.35,15.142]}},{"type":"Feature","properties":{"name":"Tatamailau","feature":"mountain","elevation_m":2986.0,"rank":9,"code":"TLS"},"geometry":{"type":"Point","coordinates":[125.49,-8.91]}},{"type":"Feature","properties":{"name":"Mount Halcon","feature":"mountain","elevation_m":2585.0,"rank":9,"code":"PHL"},"geometry":{"type":"Point","coordinates":[120.99,13.26]}},{"type":"Feature","properties":{"name":"Rinjani","feature":"mountain","elevation_m":3726.0,"rank":9,"code":"IDN"},"geometry":{"type":"Point","coordinates":[116.46,-8.41]}},{"type":"Feature","properties":{"name":"Bukit Pagon","feature":"mountain","elevation_m":1850.0,"rank":9,"code":"MYS"},"geometry":{"type":"Point","coordinates":[115.33,4.3]}},{"type":"Feature","properties":{"name":"Mount Olympus","feature":"mountain","elevation_m":1951.0,"rank":7,"code":"CYP"},"geometry":{"type":"Point","coordinates":[32.875,34.966]}},{"type":"Feature","properties":{"name":"Kyparissovouno","feature":"mountain","elevation_m":1023.0,"rank":9,"code":"CYN"},"geometry":{"type":"Point","coordinates":[33.17,35.32]}},{"type":"Feature","properties":{"name":"Puncak Jaya","feature":"mountain","elevation_m":4884.0,"rank":4,"code":"IDN"},"geometry":{"type":"Point","coordinates":[137.166,-4.078]}},{"type":"Feature","properties":{"name":"Gunung Umsini","feature":"mountain","elevation_m":2970.0,"rank":6,"code":"IDN"},"geometry":{"type":"Point","coordinates":[133.983,-1.15]}},{"type":"Feature","properties":{"name":"Gunung Binaiya","feature":"mountain","elevation_m":3027.0,"rank":6,"code":"IDN"},"geometry":{"type":"Point","coordinates":[129.468,-3.159]}},{"type":"Feature","properties":{"name":"Buku Saolat","feature":"mountain","elevation_m":1508.0,"rank":6,"code":"IDN"},"geometry":{"type":"Point","coordinates":[127.972,0.753]}},{"type":"Feature","properties":{"name":"Pico do Fogo","feature":"mountain","elevation_m":2829.0,"rank":6,"code":"CPV"},"geometry":{"type":"Point","coordinates":[-24.403,14.949]}},{"type":"Feature","properties":{"name":"Murray Hill","feature":"mountain","elevation_m":356.0,"rank":9,"code":"IOA"},"geometry":{"type":"Point","coordinates":[105.617,-10.486]}}]}